[{"OBJECT_NAME":"STARLINK-1371","OBJECT_ID":"2020-025M","EPOCH":"2026-03-09T07:05:48.354720","MEAN_MOTION":15.46961272,"ECCENTRICITY":0.00020594,"INCLINATION":53.0507,"RA_OF_ASC_NODE":91.3068,"ARG_OF_PERICENTER":356.2978,"MEAN_ANOMALY":3.8013,"EPHEMERIS_TYPE":0,"CLASSIFICATION_TYPE":"U","NORAD_CAT_ID":45542,"ELEMENT_SET_NO":999,"REV_AT_EPOCH":32527,"BSTAR":0.0017316849,"MEAN_MOTION_DOT":0.00089333,"MEAN_MOTION_DDOT":0},{"OBJECT_NAME":"SAMSAT-IONOSPHERE (RS75S)","OBJECT_ID":"2024-199BB","EPOCH":"2026-03-09T22:17:42.664992","MEAN_MOTION":15.49563395,"ECCENTRICITY":0.00086255,"INCLINATION":97.3115,"RA_OF_ASC_NODE":302.9928,"ARG_OF_PERICENTER":292.4017,"MEAN_ANOMALY":67.632,"EPHEMERIS_TYPE":0,"CLASSIFICATION_TYPE":"U","NORAD_CAT_ID":61784,"ELEMENT_SET_NO":999,"REV_AT_EPOCH":12215,"BSTAR":0.00081689278,"MEAN_MOTION_DOT":0.00045244,"MEAN_MOTION_DDOT":0}]
